start=new Date('2022-01-16T00:00:00.000Z').valueOf();
sats=[{"PERIAPSIS":"546.175","TLE_LINE2":"2 45705  53.0551  23.0315 0001464  67.3321 292.7823 15.06408112 90531","INCLINATION":"53.0551","ELEMENT_SET_NO":"999","CLASSIFICATION_TYPE":"U","MEAN_MOTION":"15.06408112","OBJECT_ID":"2020-035BA","SITE":"AFETR","MEAN_ANOMALY":"292.7823","GP_ID":"193946138","COUNTRY_CODE":"US","EPHEMERIS_TYPE":"0","OBJECT_NAME":"STARLINK-1410","RCS_SIZE":"LARGE","CENTER_NAME":"EARTH","REF_FRAME":"TEME","DECAY_DATE":null,"MEAN_ELEMENT_THEORY":"SGP4","ARG_OF_PERICENTER":"67.3321","LAUNCH_DATE":"2020-06-04","APOAPSIS":"548.203","MEAN_MOTION_DOT":"0.00001429","RA_OF_ASC_NODE":"23.0315","TLE_LINE1":"1 45705U 20035BA  22015.73486167  .00001429  00000-0  11478-3 0  9993","BSTAR":"0.00011478000000","REV_AT_EPOCH":"9053","OBJECT_TYPE":"PAYLOAD","ECCENTRICITY":"0.00014640","NORAD_CAT_ID":"45705","SEMIMAJOR_AXIS":"6925.324","EPOCH":"2022-01-15T17:38:12.048288","TIME_SYSTEM":"UTC","FILE":"3274074","MEAN_MOTION_DDOT":"0.0000000000000","PERIOD":"95.592"},{"EPOCH":"2022-01-15T15:50:42.506880","NORAD_CAT_ID":"45706","SEMIMAJOR_AXIS":"6925.307","ECCENTRICITY":"0.00016830","OBJECT_TYPE":"PAYLOAD","TIME_SYSTEM":"UTC","PERIOD":"95.591","MEAN_MOTION_DDOT":"0.0000000000000","FILE":"3274074","REF_FRAME":"TEME","DECAY_DATE":null,"CENTER_NAME":"EARTH","ARG_OF_PERICENTER":"68.5708","MEAN_ELEMENT_THEORY":"SGP4","BSTAR":"0.00022142000000","TLE_LINE1":"1 45706U 20035BB  22015.66021420  .00003019  00000-0  22142-3 0  9990","RA_OF_ASC_NODE":"353.3588","LAUNCH_DATE":"2020-06-04","APOAPSIS":"548.338","MEAN_MOTION_DOT":"0.00003019","REV_AT_EPOCH":"9094","MEAN_ANOMALY":"291.5460","GP_ID":"193944393","EPHEMERIS_TYPE":"0","COUNTRY_CODE":"US","RCS_SIZE":"LARGE","OBJECT_NAME":"STARLINK-1411","PERIAPSIS":"546.006","INCLINATION":"53.0550","TLE_LINE2":"2 45706  53.0550 353.3588 0001683  68.5708 291.5460 15.06413566 90945","ELEMENT_SET_NO":"999","OBJECT_ID":"2020-035BB","SITE":"AFETR","MEAN_MOTION":"15.06413566","CLASSIFICATION_TYPE":"U"},{"OBJECT_NAME":"STARLINK-1412","RCS_SIZE":"LARGE","EPHEMERIS_TYPE":"0","COUNTRY_CODE":"US","GP_ID":"193944643","MEAN_ANOMALY":"288.1451","MEAN_MOTION":"15.06405354","CLASSIFICATION_TYPE":"U","OBJECT_ID":"2020-035BC","SITE":"AFETR","ELEMENT_SET_NO":"999","INCLINATION":"53.0547","TLE_LINE2":"2 45707  53.0547 353.3808 0001681  71.9721 288.1451 15.06405354 90957","PERIAPSIS":"546.033","PERIOD":"95.592","MEAN_MOTION_DDOT":"0.0000000000000","FILE":"3274074","TIME_SYSTEM":"UTC","ECCENTRICITY":"0.00016810","OBJECT_TYPE":"PAYLOAD","EPOCH":"2022-01-15T15:45:24.847776","NORAD_CAT_ID":"45707","SEMIMAJOR_AXIS":"6925.332","REV_AT_EPOCH":"9095","RA_OF_ASC_NODE":"353.3808","MEAN_MOTION_DOT":"0.00002279","LAUNCH_DATE":"2020-06-04","APOAPSIS":"548.361","BSTAR":"0.00017180000000","TLE_LINE1":"1 45707U 20035BC  22015.65653759  .00002279  00000-0  17180-3 0  9999","ARG_OF_PERICENTER":"71.9721","MEAN_ELEMENT_THEORY":"SGP4","REF_FRAME":"TEME","DECAY_DATE":null,"CENTER_NAME":"EARTH"},{"ARG_OF_PERICENTER":"63.6742","MEAN_ELEMENT_THEORY":"SGP4","DECAY_DATE":null,"REF_FRAME":"TEME","CENTER_NAME":"EARTH","REV_AT_EPOCH":"9095","RA_OF_ASC_NODE":"353.4962","LAUNCH_DATE":"2020-06-04","MEAN_MOTION_DOT":"0.00001720","APOAPSIS":"548.481","BSTAR":"0.00013432000000","TLE_LINE1":"1 45708U 20035BD  22015.63073802  .00001720  00000-0  13432-3 0  9999","ECCENTRICITY":"0.00018200","OBJECT_TYPE":"PAYLOAD","EPOCH":"2022-01-15T15:08:15.764928","SEMIMAJOR_AXIS":"6925.355","NORAD_CAT_ID":"45708","PERIOD":"95.592","FILE":"3274074","MEAN_MOTION_DDOT":"0.0000000000000","TIME_SYSTEM":"UTC","INCLINATION":"53.0547","TLE_LINE2":"2 45708  53.0547 353.4962 0001820  63.6742 296.4434 15.06397798 90951","PERIAPSIS":"545.960","MEAN_MOTION":"15.06397798","CLASSIFICATION_TYPE":"U","OBJECT_ID":"2020-035BD","SITE":"AFETR","ELEMENT_SET_NO":"999","GP_ID":"193945893","MEAN_ANOMALY":"296.4434","OBJECT_NAME":"STARLINK-1418","RCS_SIZE":"LARGE","EPHEMERIS_TYPE":"0","COUNTRY_CODE":"US"},{"TIME_SYSTEM":"UTC","FILE":"3274074","MEAN_MOTION_DDOT":"0.0000000000000","PERIOD":"95.592","NORAD_CAT_ID":"45709","SEMIMAJOR_AXIS":"6925.322","EPOCH":"2022-01-15T16:01:19.955712","OBJECT_TYPE":"PAYLOAD","ECCENTRICITY":"0.00018140","TLE_LINE1":"1 45709U 20035BE  22015.66759208  .00003029  00000-0  22213-3 0  9995","BSTAR":"0.00022213000000","MEAN_MOTION_DOT":"0.00003029","LAUNCH_DATE":"2020-06-04","APOAPSIS":"548.443","RA_OF_ASC_NODE":"353.3248","REV_AT_EPOCH":"9091","CENTER_NAME":"EARTH","REF_FRAME":"TEME","DECAY_DATE":null,"MEAN_ELEMENT_THEORY":"SGP4","ARG_OF_PERICENTER":"66.0429","COUNTRY_CODE":"US","EPHEMERIS_TYPE":"0","RCS_SIZE":"LARGE","OBJECT_NAME":"STARLINK-1421","MEAN_ANOMALY":"294.0749","GP_ID":"193945639","ELEMENT_SET_NO":"999","SITE":"AFETR","OBJECT_ID":"2020-035BE","CLASSIFICATION_TYPE":"U","MEAN_MOTION":"15.06408609","PERIAPSIS":"545.931","TLE_LINE2":"2 45709  53.0551 353.3248 0001814  66.0429 294.0749 15.06408609 90918","INCLINATION":"53.0551"},{"TIME_SYSTEM":"UTC","PERIOD":"95.592","MEAN_MOTION_DDOT":"0.0000000000000","FILE":"3274074","EPOCH":"2022-01-15T15:56:01.766976","SEMIMAJOR_AXIS":"6925.350","NORAD_CAT_ID":"45710","ECCENTRICITY":"0.00017120","OBJECT_TYPE":"PAYLOAD","BSTAR":"0.00011958000000","TLE_LINE1":"1 45710U 20035BF  22015.66390934  .00001500  00000-0  11958-3 0  9990","RA_OF_ASC_NODE":"353.3431","LAUNCH_DATE":"2020-06-04","MEAN_MOTION_DOT":"0.00001500","APOAPSIS":"548.401","REV_AT_EPOCH":"9095","REF_FRAME":"TEME","DECAY_DATE":null,"CENTER_NAME":"EARTH","ARG_OF_PERICENTER":"60.8895","MEAN_ELEMENT_THEORY":"SGP4","EPHEMERIS_TYPE":"0","COUNTRY_CODE":"US","RCS_SIZE":"LARGE","OBJECT_NAME":"STARLINK-1423","MEAN_ANOMALY":"299.2265","GP_ID":"193944893","ELEMENT_SET_NO":"999","OBJECT_ID":"2020-035BF","SITE":"AFETR","MEAN_MOTION":"15.06399448","CLASSIFICATION_TYPE":"U","PERIAPSIS":"546.030","INCLINATION":"53.0544","TLE_LINE2":"2 45710  53.0544 353.3431 0001712  60.8895 299.2265 15.06399448 90956"},{"MEAN_ANOMALY":"300.1498","GP_ID":"193945143","COUNTRY_CODE":"US","EPHEMERIS_TYPE":"0","OBJECT_NAME":"STARLINK-1433","RCS_SIZE":"LARGE","PERIAPSIS":"545.835","TLE_LINE2":"2 45711  53.0558 353.4327 0001934  59.9683 300.1498 15.06412709 90942","INCLINATION":"53.0558","ELEMENT_SET_NO":"999","CLASSIFICATION_TYPE":"U","MEAN_MOTION":"15.06412709","OBJECT_ID":"2020-035BG","SITE":"AFETR","OBJECT_TYPE":"PAYLOAD","ECCENTRICITY":"0.00019340","SEMIMAJOR_AXIS":"6925.310","NORAD_CAT_ID":"45711","EPOCH":"2022-01-15T15:29:29.057280","TIME_SYSTEM":"UTC","FILE":"3274074","MEAN_MOTION_DDOT":"0.0000000000000","PERIOD":"95.591","CENTER_NAME":"EARTH","DECAY_DATE":null,"REF_FRAME":"TEME","MEAN_ELEMENT_THEORY":"SGP4","ARG_OF_PERICENTER":"59.9683","APOAPSIS":"548.514","LAUNCH_DATE":"2020-06-04","MEAN_MOTION_DOT":"0.00002541","RA_OF_ASC_NODE":"353.4327","TLE_LINE1":"1 45711U 20035BG  22015.64547520  .00002541  00000-0  18936-3 0  9993","BSTAR":"0.00018936000000","REV_AT_EPOCH":"9094"},{"PERIAPSIS":"546.116","INCLINATION":"53.0563","TLE_LINE2":"2 45712  53.0563 353.4510 0001553  74.6424 285.4737 15.06407235 90957","ELEMENT_SET_NO":"999","MEAN_MOTION":"15.06407235","CLASSIFICATION_TYPE":"U","OBJECT_ID":"2020-035BH","SITE":"AFETR","MEAN_ANOMALY":"285.4737","GP_ID":"193945395","EPHEMERIS_TYPE":"0","COUNTRY_CODE":"US","OBJECT_NAME":"STARLINK-1434","RCS_SIZE":"LARGE","REF_FRAME":"TEME","DECAY_DATE":null,"CENTER_NAME":"EARTH","ARG_OF_PERICENTER":"74.6424","MEAN_ELEMENT_THEORY":"SGP4","RA_OF_ASC_NODE":"353.4510","LAUNCH_DATE":"2020-06-04","MEAN_MOTION_DOT":"0.00001995","APOAPSIS":"548.267","BSTAR":"0.00015274000000","TLE_LINE1":"1 45712U 20035BH  22015.64178308  .00001995  00000-0  15274-3 0  9992","REV_AT_EPOCH":"9095","ECCENTRICITY":"0.00015530","OBJECT_TYPE":"PAYLOAD","EPOCH":"2022-01-15T15:24:10.058112","SEMIMAJOR_AXIS":"6925.326","NORAD_CAT_ID":"45712","TIME_SYSTEM":"UTC","PERIOD":"95.592","MEAN_MOTION_DDOT":"0.0000000000000","FILE":"3274074"},{"SITE":"AFETR","OBJECT_ID":"2020-035BJ","CLASSIFICATION_TYPE":"U","MEAN_MOTION":"15.06404711","ELEMENT_SET_NO":"999","TLE_LINE2":"2 45713  53.0556  14.2490 0001774  60.7031 299.4135 15.06404711 90632","INCLINATION":"53.0556","PERIAPSIS":"545.971","RCS_SIZE":"LARGE","OBJECT_NAME":"STARLINK-1436","COUNTRY_CODE":"US","EPHEMERIS_TYPE":"0","GP_ID":"193915017","MEAN_ANOMALY":"299.4135","REV_AT_EPOCH":"9063","TLE_LINE1":"1 45713U 20035BJ  22015.46302676  .00000061  00000-0  22970-4 0  9995","BSTAR":"0.00002297000000","MEAN_MOTION_DOT":"0.00000061","LAUNCH_DATE":"2020-06-04","APOAPSIS":"548.428","RA_OF_ASC_NODE":"14.2490","MEAN_ELEMENT_THEORY":"SGP4","ARG_OF_PERICENTER":"60.7031","CENTER_NAME":"EARTH","REF_FRAME":"TEME","DECAY_DATE":null,"FILE":"3273762","MEAN_MOTION_DDOT":"0.0000000000000","PERIOD":"95.592","TIME_SYSTEM":"UTC","SEMIMAJOR_AXIS":"6925.334","NORAD_CAT_ID":"45713","EPOCH":"2022-01-15T11:06:45.512064","OBJECT_TYPE":"PAYLOAD","ECCENTRICITY":"0.00017740"},{"NORAD_CAT_ID":"45714","SEMIMAJOR_AXIS":"6925.331","EPOCH":"2022-01-15T15:40:06.130272","OBJECT_TYPE":"PAYLOAD","ECCENTRICITY":"0.00016080","FILE":"3274074","MEAN_MOTION_DDOT":"0.0000000000000","PERIOD":"95.592","TIME_SYSTEM":"UTC","MEAN_ELEMENT_THEORY":"SGP4","ARG_OF_PERICENTER":"69.1885","CENTER_NAME":"EARTH","REF_FRAME":"TEME","DECAY_DATE":null,"REV_AT_EPOCH":"9095","TLE_LINE1":"1 45714U 20035BK  22015.65284873  .00002043  00000-0  15597-3 0  9993","BSTAR":"0.00015597000000","LAUNCH_DATE":"2020-06-04","MEAN_MOTION_DOT":"0.00002043","APOAPSIS":"548.310","RA_OF_ASC_NODE":"353.4013","GP_ID":"193944394","MEAN_ANOMALY":"290.9276","RCS_SIZE":"LARGE","OBJECT_NAME":"STARLINK-1437","COUNTRY_CODE":"US","EPHEMERIS_TYPE":"0","TLE_LINE2":"2 45714  53.0557 353.4013 0001608  69.1885 290.9276 15.06405722 90959","INCLINATION":"53.0557","PERIAPSIS":"546.082","SITE":"AFETR","OBJECT_ID":"2020-035BK","CLASSIFICATION_TYPE":"U","MEAN_MOTION":"15.06405722","ELEMENT_SET_NO":"999"}];
